[
   {
      "name": "CUTE-1 (CO-55)",
      "line1": "1 27844U 03031E   21092.85209137  .00000057  00000-0  45348-4 0  9991",
      "line2": "2 27844  98.6829 102.2042 0008815 301.4123  58.6192 14.22298316921232",
      "bstar": 4.5348,
      "inc": 98.6829,
      "raan": 102.2042,
      "ecc": 0.0008815,
      "argp": 301.4123,
      "nu": 58.6192,
      "mmo": 14.22298317,
      "a": 7195.72754
   },
   {
      "name": "CUBESAT XI-IV (CO-57)",
      "line1": "1 27848U 03031J   21092.82282633  .00000037  00000-0  36792-4 0  9995",
      "line2": "2 27848  98.6887 102.7427 0008862 315.9853  44.0618 14.21876557921065",
      "bstar": 3.6792,
      "inc": 98.6887,
      "raan": 102.7427,
      "ecc": 0.0008862,
      "argp": 315.9853,
      "nu": 44.0618,
      "mmo": 14.21876558,
      "a": 7197.1504
   },
   {
      "name": "CUBESAT XI-V",
      "line1": "1 28895U 05043F   21092.82940631  .00000196  00000-0  46310-4 0  9995",
      "line2": "2 28895  98.0456 227.7737 0018138  89.4835 270.8446 14.63887398822942",
      "bstar": 4.631,
      "inc": 98.0456,
      "raan": 227.7737,
      "ecc": 0.0018138,
      "argp": 89.4835,
      "nu": 270.8446,
      "mmo": 14.63887399,
      "a": 7058.78672
   },
   {
      "name": "CUTE-1.7+APD II (CO-65)",
      "line1": "1 32785U 08021C   21092.78357187  .00000330  00000-0  40945-4 0  9998",
      "line2": "2 32785  97.6054  74.5926 0011448 252.2655 107.7313 14.88672718700917",
      "bstar": 4.0945,
      "inc": 97.6054,
      "raan": 74.5926,
      "ecc": 0.0011448,
      "argp": 252.2655,
      "nu": 107.7313,
      "mmo": 14.88672719,
      "a": 6980.21857
   },
   {
      "name": "AAUSAT-II",
      "line1": "1 32788U 08021F   21092.95094546  .00000987  00000-0  94029-4 0  9997",
      "line2": "2 32788  97.5039  90.7876 0012243 155.5978 204.5826 14.95475097702571",
      "bstar": 9.4029,
      "inc": 97.5039,
      "raan": 90.7876,
      "ecc": 0.0012243,
      "argp": 155.5978,
      "nu": 204.5826,
      "mmo": 14.95475098,
      "a": 6959.03548
   },
   {
      "name": "DELFI-C3 (DO-64)",
      "line1": "1 32789U 08021G   21092.81323815  .00001628  00000-0  10752-3 0  9990",
      "line2": "2 32789  97.3845 131.0755 0012993  49.6495 310.5866 15.08697640705423",
      "bstar": 10.752,
      "inc": 97.3845,
      "raan": 131.0755,
      "ecc": 0.0012993,
      "argp": 49.6495,
      "nu": 310.5866,
      "mmo": 15.08697641,
      "a": 6918.31556
   },
   {
      "name": "SEEDS II (CO-66)",
      "line1": "1 32791U 08021J   21092.68043542  .00000372  00000-0  42640-4 0  9991",
      "line2": "2 32791  97.5669  80.4765 0012202 213.1243 146.9213 14.91333598701481",
      "bstar": 4.264,
      "inc": 97.5669,
      "raan": 80.4765,
      "ecc": 0.0012202,
      "argp": 213.1243,
      "nu": 146.9213,
      "mmo": 14.91333599,
      "a": 6971.91323
   },
   {
      "name": "SWISSCUBE",
      "line1": "1 35932U 09051B   21092.78871581  .00000158  00000-0  46589-4 0  9996",
      "line2": "2 35932  98.6077 290.4075 0006868 327.8622  32.2155 14.56508492611949",
      "bstar": 4.6589,
      "inc": 98.6077,
      "raan": 290.4075,
      "ecc": 0.0006868,
      "argp": 327.8622,
      "nu": 32.2155,
      "mmo": 14.56508493,
      "a": 7082.60726
   },
   {
      "name": "BEESAT-1",
      "line1": "1 35933U 09051C   21092.82610979  .00000125  00000-0  39030-4 0  9991",
      "line2": "2 35933  98.6048 292.2873 0005344 344.7527  15.3508 14.56569723612022",
      "bstar": 3.903,
      "inc": 98.6048,
      "raan": 292.2873,
      "ecc": 0.0005344,
      "argp": 344.7527,
      "nu": 15.3508,
      "mmo": 14.56569724,
      "a": 7082.40877
   },
   {
      "name": "ITUPSAT1",
      "line1": "1 35935U 09051E   21092.78530330  .00000112  00000-0  36719-4 0  9997",
      "line2": "2 35935  98.6152 292.3982 0007644 341.8317  18.2606 14.55704845611768",
      "bstar": 3.6719,
      "inc": 98.6152,
      "raan": 292.3982,
      "ecc": 0.0007644,
      "argp": 341.8317,
      "nu": 18.2606,
      "mmo": 14.55704846,
      "a": 7085.21374
   },
   {
      "name": "TISAT 1",
      "line1": "1 36799U 10035E   21092.78696548  .00000630  00000-0  68699-4 0  9991",
      "line2": "2 36799  98.2069 280.5363 0013503 100.9160 259.3577 14.91661524582053",
      "bstar": 6.8699,
      "inc": 98.2069,
      "raan": 280.5363,
      "ecc": 0.0013503,
      "argp": 100.916,
      "nu": 259.3577,
      "mmo": 14.91661525,
      "a": 6970.89139
   },
   {
      "name": "M-CUBED & EXP-1 PRIME",
      "line1": "1 37855U 11061F   21092.89402296  .00002329  00000-0  11931-3 0  9995",
      "line2": "2 37855 101.7182 337.1272 0167594 295.4669  62.9287 15.07405157514793",
      "bstar": 11.931,
      "inc": 101.7182,
      "raan": 337.1272,
      "ecc": 0.0167594,
      "argp": 295.4669,
      "nu": 62.9287,
      "mmo": 15.07405158,
      "a": 6922.26961
   },
   {
      "name": "AEROCUBE 4.5A",
      "line1": "1 38767U 12048K   21092.88618209  .00001281  00000-0  11643-3 0  9992",
      "line2": "2 38767  64.6667  51.1199 0143829  31.6608 329.3054 14.92668126 84996",
      "bstar": 11.643,
      "inc": 64.6667,
      "raan": 51.1199,
      "ecc": 0.0143829,
      "argp": 31.6608,
      "nu": 329.3054,
      "mmo": 14.92668126,
      "a": 6967.75709
   },
   {
      "name": "AEROCUBE 4.5B",
      "line1": "1 38768U 12048L   21092.84121951  .00001673  00000-0  13607-3 0  9999",
      "line2": "2 38768  64.6685  14.5826 0135532  26.0334 334.7513 14.96505543 85171",
      "bstar": 13.607,
      "inc": 64.6685,
      "raan": 14.5826,
      "ecc": 0.0135532,
      "argp": 26.0334,
      "nu": 334.7513,
      "mmo": 14.96505543,
      "a": 6955.84061
   },
   {
      "name": "STRAND-1",
      "line1": "1 39090U 13009E   21092.83211437  .00000028  00000-0  24756-4 0  9995",
      "line2": "2 39090  98.4344 296.7919 0009888 138.1623 222.0320 14.35172770424193",
      "bstar": 2.4756,
      "inc": 98.4344,
      "raan": 296.7919,
      "ecc": 0.0009888,
      "argp": 138.1623,
      "nu": 222.032,
      "mmo": 14.3517277,
      "a": 7152.6293
   },
   {
      "name": "SOMP",
      "line1": "1 39134U 13015E   21092.83713870  .00002986  00000-0  13793-3 0  9992",
      "line2": "2 39134  64.8642  58.3087 0005239 249.7393 110.3173 15.22255037439700",
      "bstar": 13.793,
      "inc": 64.8642,
      "raan": 58.3087,
      "ecc": 0.0005239,
      "argp": 249.7393,
      "nu": 110.3173,
      "mmo": 15.22255037,
      "a": 6877.17741
   },
   {
      "name": "BEESAT-3",
      "line1": "1 39135U 13015F   21092.41518085  .00001959  00000-0  10222-3 0  9991",
      "line2": "2 39135  64.8658  87.6326 0007835 201.5433 158.5366 15.19119144439087",
      "bstar": 10.222,
      "inc": 64.8658,
      "raan": 87.6326,
      "ecc": 0.0007835,
      "argp": 201.5433,
      "nu": 158.5366,
      "mmo": 15.19119144,
      "a": 6886.63846
   },
   {
      "name": "BEESAT-2",
      "line1": "1 39136U 13015G   21092.71059909  .00001656  00000-0  88878-4 0  9997",
      "line2": "2 39136  64.8733  92.7602 0028518 251.2266 108.5766 15.18494834438992",
      "bstar": 8.8878,
      "inc": 64.8733,
      "raan": 92.7602,
      "ecc": 0.0028518,
      "argp": 251.2266,
      "nu": 108.5766,
      "mmo": 15.18494834,
      "a": 6888.5259
   },
   {
      "name": "NEE-01 PEGASO",
      "line1": "1 39151U 13018B   21092.78821871  .00000253  00000-0  40150-4 0  9992",
      "line2": "2 39151  97.9736 195.7137 0015802 240.5746 119.3889 14.80313254428485",
      "bstar": 4.015,
      "inc": 97.9736,
      "raan": 195.7137,
      "ecc": 0.0015802,
      "argp": 240.5746,
      "nu": 119.3889,
      "mmo": 14.80313254,
      "a": 7006.47252
   },
   {
      "name": "ESTCUBE 1",
      "line1": "1 39161U 13021C   21092.71512502  .00000226  00000-0  43419-4 0  9999",
      "line2": "2 39161  97.9396 175.6397 0010301  40.0944 320.1016 14.72448821424609",
      "bstar": 4.3419,
      "inc": 97.9396,
      "raan": 175.6397,
      "ecc": 0.0010301,
      "argp": 40.0944,
      "nu": 320.1016,
      "mmo": 14.72448821,
      "a": 7031.39834
   },
   {
      "name": "POPACS 1",
      "line1": "1 39268U 13055D   21092.73057445  .00006725  00000-0  17869-3 0  9995",
      "line2": "2 39268  81.0028 349.7832 0606948  81.3890 285.5544 14.41949136389642",
      "bstar": 17.869,
      "inc": 81.0028,
      "raan": 349.7832,
      "ecc": 0.0606948,
      "argp": 81.389,
      "nu": 285.5544,
      "mmo": 14.41949136,
      "a": 7130.20277
   },
   {
      "name": "POPACS 2",
      "line1": "1 39269U 13055E   21092.80747817  .00003030  00000-0  85778-4 0  9994",
      "line2": "2 39269  81.0166  34.6402 0669851 197.5586 160.1406 14.27331758387230",
      "bstar": 8.5778,
      "inc": 81.0166,
      "raan": 34.6402,
      "ecc": 0.0669851,
      "argp": 197.5586,
      "nu": 160.1406,
      "mmo": 14.27331758,
      "a": 7178.80057
   },
   {
      "name": "POPACS 3",
      "line1": "1 39270U 13055F   21092.89519404  .00001863  00000-0  58292-4 0  9997",
      "line2": "2 39270  81.0171  60.3456 0703483 270.9806  81.0907 14.18169345366138",
      "bstar": 5.8292,
      "inc": 81.0171,
      "raan": 60.3456,
      "ecc": 0.0703483,
      "argp": 270.9806,
      "nu": 81.0907,
      "mmo": 14.18169345,
      "a": 7209.68758
   },
   {
      "name": "ZACUBE-1 (TSHEPISOSAT)",
      "line1": "1 39417U 13066B   21092.93948061  .00000430  00000-0  59658-4 0  9998",
      "line2": "2 39417  97.5887  81.2000 0059899  49.7114 310.9314 14.81464891397890",
      "bstar": 5.9658,
      "inc": 97.5887,
      "raan": 81.2,
      "ecc": 0.0059899,
      "argp": 49.7114,
      "nu": 310.9314,
      "mmo": 14.81464891,
      "a": 7002.841
   }
]